IRIDIUM 159             
1 43578U 18061K   25194.06146342  .00000012  00000+0 -28027-5 0  9997
2 43578  86.3985 198.3944 0002332  93.8328 266.3134 14.34217800364771
IRIDIUM 180             
1 43922U 19002A   25193.78188655  .00000051  00000+0  11002-4 0  9993
2 43922  86.3997 135.4939 0002350  83.3638 276.7825 14.34217823340345
IRIDIUM 176             
1 43923U 19002B   25193.79624363  .00000593  00000+0  90186-4 0  9997
2 43923  86.6123 135.4788 0002671  72.3011 287.8498 14.72249085349313
IRIDIUM 168             
1 43924U 19002C   25194.12438621  .00000074  00000+0  19331-4 0  9993
2 43924  86.4001 135.4187 0002302  84.2204 275.9254 14.34217523340372
IRIDIUM 173             
1 43925U 19002D   25193.90239969  .00000092  00000+0  25733-4 0  9996
2 43925  86.3996 135.4141 0002390  80.5405 279.6060 14.34215180340322
IRIDIUM 169             
1 43926U 19002E   25193.68094561  .00000219  00000+0  65248-4 0  9995
2 43926  86.4257 167.0915 0002540  50.4964 309.6458 14.38604996341414
IRIDIUM 172             
1 43927U 19002F   25193.54721128  .00000032  00000+0  43564-5 0  9998
2 43927  86.3998 135.5693 0002541  86.0507 274.0979 14.34217600340283
IRIDIUM 175             
1 43928U 19002G   25193.79123721  .00000629  00000+0  95803-4 0  9995
2 43928  86.1487  86.5373 0001453  76.9712 283.1666 14.72248196349304
